[{"OBJECT_NAME":"STARLINK-3078","OBJECT_ID":"2021-082E","EPOCH":"2026-03-09T22:02:30.521184","MEAN_MOTION":14.98354201,"ECCENTRICITY":0.00027779,"INCLINATION":69.9988,"RA_OF_ASC_NODE":293.883,"ARG_OF_PERICENTER":269.5182,"MEAN_ANOMALY":90.5658,"EPHEMERIS_TYPE":0,"CLASSIFICATION_TYPE":"U","NORAD_CAT_ID":49134,"ELEMENT_SET_NO":999,"REV_AT_EPOCH":24721,"BSTAR":-0.00042795452,"MEAN_MOTION_DOT":-5.199e-5,"MEAN_MOTION_DDOT":0},{"OBJECT_NAME":"UNKNOWN","OBJECT_ID":"","EPOCH":"2026-03-09T16:30:44.564256","MEAN_MOTION":14.36564228,"ECCENTRICITY":0.0359571,"INCLINATION":65.6735,"RA_OF_ASC_NODE":282.8329,"ARG_OF_PERICENTER":31.2915,"MEAN_ANOMALY":28.2093,"EPHEMERIS_TYPE":0,"CLASSIFICATION_TYPE":"U","NORAD_CAT_ID":87764,"ELEMENT_SET_NO":999,"REV_AT_EPOCH":63160,"BSTAR":0.0015438,"MEAN_MOTION_DOT":9.503e-5,"MEAN_MOTION_DDOT":0}]
